{
    "links": {
        "self": "http://www.neowsapp.com/rest/v1/neo/3696452?api_key=iIulBulltgU6a56xZRHN4H3l9WmuAYTsLGpBGhQ2"
    },
    "id": "3696452",
    "neo_reference_id": "3696452",
    "name": "(2014 WQ7)",
    "designation": "2014 WQ7",
    "nasa_jpl_url": "http://ssd.jpl.nasa.gov/sbdb.cgi?sstr=3696452",
    "absolute_magnitude_h": 26.0,
    "estimated_diameter": {
        "kilometers": {
            "estimated_diameter_min": 0.0167708462,
            "estimated_diameter_max": 0.0375007522
        },
        "meters": {
            "estimated_diameter_min": 16.7708462163,
            "estimated_diameter_max": 37.5007521798
        },
        "miles": {
            "estimated_diameter_min": 0.0104209175,
            "estimated_diameter_max": 0.0233018799
        },
        "feet": {
            "estimated_diameter_min": 55.0224631002,
            "estimated_diameter_max": 123.0339677816
        }
    },
    "is_potentially_hazardous_asteroid": false,
    "close_approach_data": [
        {
            "close_approach_date": "2011-09-18",
            "close_approach_date_full": "2011-Sep-18 07:36",
            "epoch_date_close_approach": 1316331360000,
            "relative_velocity": {
                "kilometers_per_second": "17.6284410745",
                "kilometers_per_hour": "63462.3878681687",
                "miles_per_hour": "39433.0598395296"
            },
            "miss_distance": {
                "astronomical": "0.413976654",
                "lunar": "161.036918406",
                "kilometers": "61930025.66812698",
                "miles": "38481533.537753124"
            },
            "orbiting_body": "Earth"
        },
        {
            "close_approach_date": "2014-11-13",
            "close_approach_date_full": "2014-Nov-13 01:56",
            "epoch_date_close_approach": 1415843760000,
            "relative_velocity": {
                "kilometers_per_second": "6.750098539",
                "kilometers_per_hour": "24300.3547405399",
                "miles_per_hour": "15099.295421976"
            },
            "miss_distance": {
                "astronomical": "0.0602207681",
                "lunar": "23.4258787909",
                "kilometers": "9008898.637523947",
                "miles": "5597870.0366745886"
            },
            "orbiting_body": "Earth"
        },
        {
            "close_approach_date": "2017-12-24",
            "close_approach_date_full": "2017-Dec-24 00:01",
            "epoch_date_close_approach": 1514073660000,
            "relative_velocity": {
                "kilometers_per_second": "20.1992684453",
                "kilometers_per_hour": "72717.3664031412",
                "miles_per_hour": "45183.7435853296"
            },
            "miss_distance": {
                "astronomical": "0.4896022423",
                "lunar": "190.4552722547",
                "kilometers": "73243452.595303901",
                "miles": "45511371.0524037938"
            },
            "orbiting_body": "Earth"
        }
    ],
    "orbital_data": {
        "orbit_id": "5",
        "orbit_determination_date": "2017-04-06 08:37:23",
        "first_observation_date": "2014-11-18",
        "last_observation_date": "2014-11-28",
        "data_arc_in_days": 10,
        "observations_used": 16,
        "orbit_uncertainty": "8",
        "minimum_orbit_intersection": ".0571358",
        "jupiter_tisserand_invariant": "3.555",
        "epoch_osculation": "2456980.5",
        "eccentricity": ".5059947098046135",
        "semi_major_axis": "2.115425951250729",
        "inclination": "5.484199994257128",
        "ascending_node_longitude": "235.948391456242",
        "orbital_period": "1123.815890396568",
        "perihelion_distance": "1.045031610934468",
        "perihelion_argument": "167.7190454110331",
        "aphelion_distance": "3.18582029156699",
        "perihelion_time": "2456969.426894817915",
        "mean_anomaly": "3.54712715811833",
        "mean_motion": ".3203371682820434",
        "equinox": "J2000",
        "orbit_class": {
            "orbit_class_type": "AMO",
            "orbit_class_description": "Near-Earth asteroid orbits similar to that of 1221 Amor",
            "orbit_class_range": "1.017 AU < q (perihelion) < 1.3 AU"
        }
    },
    "is_sentry_object": false
}